{"type": "FeatureCollection", "features": [ {"type": "Feature", "properties": {"norad_id": 30676, "name": "FENGYUN 1C DEB", "group": "fengyun-1c-debris", "lat": 7.798498629551377, "lon": 0.226743080299994, "alt_km": 1261.9184280712607, "timestamp": "2025-12-20T03:42:47.671143+00:00", "meta": {"OBJECT_NAME": "FENGYUN 1C DEB", "OBJECT_ID": "1999-025AQJ", "EPOCH": "2025-12-19T11:10:38.862048", "MEAN_MOTION": 13.73928745, "ECCENTRICITY": 0.0472125, "INCLINATION": 98.2658, "RA_OF_ASC_NODE": 178.4873, "ARG_OF_PERICENTER": 30.0838, "MEAN_ANOMALY": 332.6558, "EPHEMERIS_TYPE": 0, "CLASSIFICATION_TYPE": "U", "NORAD_CAT_ID": 30676, "ELEMENT_SET_NO": 999, "REV_AT_EPOCH": 94016, "BSTAR": 0.00050108, "MEAN_MOTION_DOT": 1.02e-05, "MEAN_MOTION_DDOT": 0}, "tle": {"line1": "1 30676U 99025AQJ 25353.46572757  .00001020  00000+0  50108-3 0  9997", "line2": "2 30676  98.2658 178.4873 0472125  30.0838 332.6558 13.73928745940164"}}, "geometry": {"type": "Point", "coordinates": [0.226743080299994, 7.798498629551377]}}, {"type": "Feature", "properties": {"norad_id": 30677, "name": "FENGYUN 1C DEB", "group": "fengyun-1c-debris", "lat": 48.030396440185854, "lon": -131.7447379709775, "alt_km": 729.9013143010652, "timestamp": "2025-12-20T03:42:47.671153+00:00", "meta": {"OBJECT_NAME": "FENGYUN 1C DEB", "OBJECT_ID": "1999-025AQK", "EPOCH": "2025-12-19T02:21:12.199968", "MEAN_MOTION": 14.38188451, "ECCENTRICITY": 0.00665025, "INCLINATION": 98.2537, "RA_OF_ASC_NODE": 37.9527, "ARG_OF_PERICENTER": 185.1284, "MEAN_ANOMALY": 239.0133, "EPHEMERIS_TYPE": 0, "CLASSIFICATION_TYPE": "U", "NORAD_CAT_ID": 30677, "ELEMENT_SET_NO": 999, "REV_AT_EPOCH": 98071, "BSTAR": 0.00087024533, "MEAN_MOTION_DOT": 2.669e-05, "MEAN_MOTION_DDOT": 0}, "tle": {"line1": "1 30677U 99025AQK 25353.09805787  .00002669  00000+0  87025-3 0  9997", "line2": "2 30677  98.2537  37.9527 0066502 185.1284 239.0133 14.38188451980719"}}, "geometry": {"type": "Point", "coordinates": [-131.7447379709775, 48.030396440185854]}}, {"type": "Feature", "properties": {"norad_id": 30678, "name": "FENGYUN 1C DEB", "group": "fengyun-1c-debris", "lat": -30.687598675140354, "lon": -39.394855756230186, "alt_km": 842.2733076953245, "timestamp": "2025-12-20T03:42:47.671163+00:00", "meta": {"OBJECT_NAME": "FENGYUN 1C DEB", "OBJECT_ID": "1999-025AQL", "EPOCH": "2025-12-19T09:54:33.676992", "MEAN_MOTION": 14.24247135, "ECCENTRICITY": 0.0071238, "INCLINATION": 99.0794, "RA_OF_ASC_NODE": 314.3935, "ARG_OF_PERICENTER": 211.1049, "MEAN_ANOMALY": 275.72, "EPHEMERIS_TYPE": 0, "CLASSIFICATION_TYPE": "U", "NORAD_CAT_ID": 30678, "ELEMENT_SET_NO": 999, "REV_AT_EPOCH": 95970, "BSTAR": 0.0020104, "MEAN_MOTION_DOT": 4.717e-05, "MEAN_MOTION_DDOT": 0}, "tle": {"line1": "1 30678U 99025AQL 25353.41288978  .00004717  00000+0  20104-2 0  9991", "line2": "2 30678  99.0794 314.3935 0071238 211.1049 275.7200 14.24247135959707"}}, "geometry": {"type": "Point", "coordinates": [-39.394855756230186, -30.687598675140354]}}, {"type": "Feature", "properties": {"norad_id": 30679, "name": "FENGYUN 1C DEB", "group": "fengyun-1c-debris", "lat": -17.479431075938333, "lon": 48.823341088280216, "alt_km": 939.0385844196171, "timestamp": "2025-12-20T03:42:47.671173+00:00", "meta": {"OBJECT_NAME": "FENGYUN 1C DEB", "OBJECT_ID": "1999-025AQM", "EPOCH": "2025-12-18T22:48:12.178080", "MEAN_MOTION": 13.79723801, "ECCENTRICITY": 0.01713589, "INCLINATION": 99.3808, "RA_OF_ASC_NODE": 44.6456, "ARG_OF_PERICENTER": 62.4313, "MEAN_ANOMALY": 61.8977, "EPHEMERIS_TYPE": 0, "CLASSIFICATION_TYPE": "U", "NORAD_CAT_ID": 30679, "ELEMENT_SET_NO": 999, "REV_AT_EPOCH": 94605, "BSTAR": 0.00054346494, "MEAN_MOTION_DOT": 5.84e-06, "MEAN_MOTION_DDOT": 0}, "tle": {"line1": "1 30679U 99025AQM 25352.95014095  .00000584  00000+0  54346-3 0  9991", "line2": "2 30679  99.3808  44.6456 0171358  62.4313  61.8977 13.79723801946050"}}, "geometry": {"type": "Point", "coordinates": [48.823341088280216, -17.479431075938333]}}, {"type": "Feature", "properties": {"norad_id": 30680, "name": "FENGYUN 1C DEB", "group": "fengyun-1c-debris", "lat": -58.307701946490354, "lon": 52.574116795210436, "alt_km": 1274.400630459193, "timestamp": "2025-12-20T03:42:47.671184+00:00", "meta": {"OBJECT_NAME": "FENGYUN 1C DEB", "OBJECT_ID": "1999-025AQN", "EPOCH": "2025-12-18T18:23:01.288032", "MEAN_MOTION": 13.56159217, "ECCENTRICITY": 0.03382872, "INCLINATION": 99.6298, "RA_OF_ASC_NODE": 35.2546, "ARG_OF_PERICENTER": 152.9003, "MEAN_ANOMALY": 209.025, "EPHEMERIS_TYPE": 0, "CLASSIFICATION_TYPE": "U", "NORAD_CAT_ID": 30680, "ELEMENT_SET_NO": 999, "REV_AT_EPOCH": 92335, "BSTAR": 0.0035013915, "MEAN_MOTION_DOT": 3.512e-05, "MEAN_MOTION_DDOT": 0}, "tle": {"line1": "1 30680U 99025AQN 25352.76598713  .00003512  00000+0  35014-2 0  9990", "line2": "2 30680  99.6298  35.2546 0338287 152.9003 209.0250 13.56159217923358"}}, "geometry": {"type": "Point", "coordinates": [52.574116795210436, -58.307701946490354]}}, {"type": "Feature", "properties": {"norad_id": 30683, "name": "FENGYUN 1C DEB", "group": "fengyun-1c-debris", "lat": -10.828223875533682, "lon": 7.698296039330255, "alt_km": 978.2279291081368, "timestamp": "2025-12-20T03:42:47.671194+00:00", "meta": {"OBJECT_NAME": "FENGYUN 1C DEB", "OBJECT_ID": "1999-025AQR", "EPOCH": "2025-12-18T13:07:57.794880", "MEAN_MOTION": 14.00406991, "ECCENTRICITY": 0.01382693, "INCLINATION": 99.4277, "RA_OF_ASC_NODE": 4.2199, "ARG_OF_PERICENTER": 208.718, "MEAN_ANOMALY": 319.606, "EPHEMERIS_TYPE": 0, "CLASSIFICATION_TYPE": "U", "NORAD_CAT_ID": 30683, "ELEMENT_SET_NO": 999, "REV_AT_EPOCH": 95632, "BSTAR": 0.00088653641, "MEAN_MOTION_DOT": 1.38e-05, "MEAN_MOTION_DDOT": 0}, "tle": {"line1": "1 30683U 99025AQR 25352.54719670  .00001380  00000+0  88654-3 0  9996", "line2": "2 30683  99.4277   4.2199 0138269 208.7180 319.6060 14.00406991956324"}}, "geometry": {"type": "Point", "coordinates": [7.698296039330255, -10.828223875533682]}}, {"type": "Feature", "properties": {"norad_id": 30684, "name": "FENGYUN 1C DEB", "group": "fengyun-1c-debris", "lat": -10.324952323937486, "lon": 37.192719016732106, "alt_km": 1039.4723121589204, "timestamp": "2025-12-20T03:42:47.671204+00:00", "meta": {"OBJECT_NAME": "FENGYUN 1C DEB", "OBJECT_ID": "1999-025AQS", "EPOCH": "2025-12-19T13:42:36.914112", "MEAN_MOTION": 13.66819502, "ECCENTRICITY": 0.0235663, "INCLINATION": 99.5311, "RA_OF_ASC_NODE": 34.8638, "ARG_OF_PERICENTER": 251.7531, "MEAN_ANOMALY": 105.7838, "EPHEMERIS_TYPE": 0, "CLASSIFICATION_TYPE": "U", "NORAD_CAT_ID": 30684, "ELEMENT_SET_NO": 999, "REV_AT_EPOCH": 93722, "BSTAR": 0.00087836, "MEAN_MOTION_DOT": 8.41e-06, "MEAN_MOTION_DDOT": 0}, "tle": {"line1": "1 30684U 99025AQS 25353.57126058  .00000841  00000+0  87836-3 0  9995", "line2": "2 30684  99.5311  34.8638 0235663 251.7531 105.7838 13.66819502937228"}}, "geometry": {"type": "Point", "coordinates": [37.192719016732106, -10.324952323937486]}}, {"type": "Feature", "properties": {"norad_id": 30686, "name": "FENGYUN 1C DEB", "group": "fengyun-1c-debris", "lat": -78.7585375653121, "lon": -44.26688142386609, "alt_km": 753.8333078640071, "timestamp": "2025-12-20T03:42:47.671214+00:00", "meta": {"OBJECT_NAME": "FENGYUN 1C DEB", "OBJECT_ID": "1999-025AQU", "EPOCH": "2025-12-19T18:39:28.279296", "MEAN_MOTION": 14.73946212, "ECCENTRICITY": 0.0144121, "INCLINATION": 99.0325, "RA_OF_ASC_NODE": 188.4751, "ARG_OF_PERICENTER": 98.8013, "MEAN_ANOMALY": 323.1573, "EPHEMERIS_TYPE": 0, "CLASSIFICATION_TYPE": "U", "NORAD_CAT_ID": 30686, "ELEMENT_SET_NO": 999, "REV_AT_EPOCH": 99705, "BSTAR": 0.00045474, "MEAN_MOTION_DOT": 3.457e-05, "MEAN_MOTION_DDOT": 0}, "tle": {"line1": "1 30686U 99025AQU 25353.77741064  .00003457  00000+0  45474-3 0  9997", "line2": "2 30686  99.0325 188.4751 0144121  98.8013 323.1573 14.73946212997052"}}, "geometry": {"type": "Point", "coordinates": [-44.26688142386609, -78.7585375653121]}}, {"type": "Feature", "properties": {"norad_id": 30688, "name": "FENGYUN 1C DEB", "group": "fengyun-1c-debris", "lat": -19.924556166393113, "lon": -115.62195499530971, "alt_km": 788.0614647661869, "timestamp": "2025-12-20T03:42:47.671224+00:00", "meta": {"OBJECT_NAME": "FENGYUN 1C DEB", "OBJECT_ID": "1999-025AQW", "EPOCH": "2025-12-19T11:46:02.580960", "MEAN_MOTION": 14.32750629, "ECCENTRICITY": 0.0015492, "INCLINATION": 98.7016, "RA_OF_ASC_NODE": 66.8934, "ARG_OF_PERICENTER": 294.1517, "MEAN_ANOMALY": 81.0615, "EPHEMERIS_TYPE": 0, "CLASSIFICATION_TYPE": "U", "NORAD_CAT_ID": 30688, "ELEMENT_SET_NO": 999, "REV_AT_EPOCH": 97357, "BSTAR": 0.0011315, "MEAN_MOTION_DOT": 3.042e-05, "MEAN_MOTION_DDOT": 0}, "tle": {"line1": "1 30688U 99025AQW 25353.49030765  .00003042  00000+0  11315-2 0  9993", "line2": "2 30688  98.7016  66.8934 0015492 294.1517  81.0615 14.32750629973575"}}, "geometry": {"type": "Point", "coordinates": [-115.62195499530971, -19.924556166393113]}}, {"type": "Feature", "properties": {"norad_id": 30689, "name": "FENGYUN 1C DEB", "group": "fengyun-1c-debris", "lat": -4.65677612966478, "lon": -19.111227093549388, "alt_km": 851.639291305054, "timestamp": "2025-12-20T03:42:47.671234+00:00", "meta": {"OBJECT_NAME": "FENGYUN 1C DEB", "OBJECT_ID": "1999-025AQX", "EPOCH": "2025-12-18T23:06:53.505792", "MEAN_MOTION": 14.11776074, "ECCENTRICITY": 0.01118127, "INCLINATION": 98.7085, "RA_OF_ASC_NODE": 339.0165, "ARG_OF_PERICENTER": 85.7821, "MEAN_ANOMALY": 338.1112, "EPHEMERIS_TYPE": 0, "CLASSIFICATION_TYPE": "U", "NORAD_CAT_ID": 30689, "ELEMENT_SET_NO": 999, "REV_AT_EPOCH": 96978, "BSTAR": 0.00031606575, "MEAN_MOTION_DOT": 5.69e-06, "MEAN_MOTION_DDOT": 0}, "tle": {"line1": "1 30689U 99025AQX 25352.96311928  .00000569  00000+0  31607-3 0  9996", "line2": "2 30689  98.7085 339.0165 0111812  85.7821 338.1112 14.11776074969783"}}, "geometry": {"type": "Point", "coordinates": [-19.111227093549388, -4.65677612966478]}}]}